CUBEBUG-2 (LO-74)
1 39440U 13066AA  26176.43625579  .00004345  00000-0  40196-3 0  9998
2 39440  97.8903 125.4492 0057610   1.8777 358.2648 14.93825366678222
FUNCUBE-1 (AO-73)
1 39444U 13066AE  26176.47507992  .00008333  00000-0  51484-3 0  9997
2 39444  97.8270 148.0938 0036516 172.7901 187.3861 15.09577582680917
UWE-3
1 39446U 13066AG  26175.43428147  .00003951  00000-0  34050-3 0  9999
2 39446  97.8706 131.5569 0046842 296.6681  62.9747 14.97078120678664
UNISAT-6
1 40012U 14033C   26176.40302398  .00002505  00000-0  27187-3 0  9999
2 40012  97.7882 328.9707 0045805  42.8866 317.5908 14.88282993647387
DUCHIFAT-1
1 40021U 14033M   26175.43754143  .00105271  00000-0  10238-2 0  9992
2 40021  98.0461 235.6243 0001842 104.9324 255.2139 15.65947368656884
FUNCUBE-3 (EO-79)
1 40025U 14033R   26176.51987529  .00010465  00000-0  51209-3 0  9996
2 40025  98.0964 188.2502 0008672 185.6862 174.4273 15.18376533654290
LILACSAT-2
1 40908U 15049K   26176.59190125  .00021256  00000-0  35801-3 0  9990
2 40908  97.4641 213.7535 0006313 207.1919 152.9004 15.51706032597059
CAS-2T & KS-1Q
1 41847U 16066G   26176.20550696  .00001561  00000-0  22533-3 0  9999
2 41847  98.3820 251.8502 0342889 105.2370 258.6999 14.44718564505957
FOX-1B (AO-91)
1 43017U 17073E   26176.54226394  .00007913  00000-0  34638-3 0  9997
2 43017  97.4699  43.5862 0148650 300.1381  58.5188 15.12825530466653
FOX-1A (AO-85)
1 40967U 15058D   26176.53558108  .00002298  00000-0  21215-3 0  9997
2 40967  64.7749 253.0389 0130941  53.3453 307.9612 14.91002473114810
DIWATA-2B (PO-101)
1 43678U 18084H   26176.57244598  .00002058  00000-0  16840-3 0  9992
2 43678  98.1206  13.1462 0012983 143.8417 216.3685 15.00485529417477
ESHAIL-2
1 43700U 18090A   26176.31616961  .00000154  00000-0  00000-0 0  9997
2 43700   0.0181 336.2990 0002175 153.2886 283.4885  1.00273905 27752
ITASAT-1
1 43786U 18099AE  26176.38722288  .00007409  00000-0  35511-3 0  9995
2 43786  97.4030 227.7353 0011275 330.0612  29.9977 15.19148887414153
FOX-1CLIFF (AO-95)
1 43770U 18099N   26176.40116359  .00013696  00000-0  52087-3 0  9999
2 43770  97.4384 236.6174 0007203 325.7234  34.3539 15.26870424414471
JY1SAT (JO-97)
1 43803U 18099AX  26176.12045785  .00020902  00000-0  63898-3 0  9999
2 43803  97.4134 238.9829 0004923 226.5613 133.5221 15.33882017414848
UWE-4
1 43880U 18111E   26175.33342868  .00030606  00000-0  61651-3 0  9990
2 43880  97.5840 104.0552 0004422 306.3927  53.6913 15.46518147411888
CAS-6 (TO-108)
1 44881U 19093C   26176.59341946  .00000224  00000-0  31327-4 0  9998
2 44881  97.7532 248.6208 0014983  61.9308 298.3421 14.86529547352664
DOSAAF-85 (RS-44)
1 44909U 19096E   26176.52694699  .00000024  00000-0  43499-4 0  9992
2 44909  82.5224 334.1623 0218443 124.7433 237.4451 12.79748967303416
SALSAT (TUBSAT 22)
1 46495U 20068K   26176.51768004  .00008873  00000-0  30898-3 0  9994
2 46495  97.8852 180.0899 0007802 272.5783  87.4563 15.29908924316636
CAMSAT XW-3 (CAS-9)
1 50466U 21131B   26176.59315206  .00000445  00000-0  15095-3 0  9998
2 50466  98.4980 268.9373 0005351  77.2667 282.9120 14.41364360236320
ROBUSTA 1F (MTCUBE-2)
1 53109U 22080E   26174.72102765 -.00000003  00000-0  00000-0 0  9994
2 53109  70.1445 295.9726 0008927 288.1418  71.8270  6.42583215 92483
UMKA-1 (RS40S)
1 57172U 23091G   26176.51559521  .00008178  00000-0  37188-3 0  9996
2 57172  97.5051 235.1806 0014307  91.9943 268.2931 15.20907085165275
CUBESX-HSE-3 (RS42S)
1 57178U 23091N   26176.53811144  .00017491  00000-0  57734-3 0  9993
2 57178  97.5094 242.2312 0011616  68.7576 291.4904 15.31410874165706
MONITOR-3 (RS58S)
1 57180U 23091Q   26176.51562893  .00013765  00000-0  50512-3 0  9995
2 57180  97.5086 240.0230 0012819  75.1032 285.1626 15.27997849165562
MONITOR-4 (RS57S)
1 57182U 23091S   26176.55970557  .00013089  00000-0  47926-3 0  9995
2 57182  97.5079 240.0391 0012826  75.1936 285.0724 15.28084118165571
MONITOR-2 (RS39S)
1 57184U 23091U   26176.48146355  .00005648  00000-0  27276-3 0  9998
2 57184  97.5073 234.7107 0012770  86.0983 274.1711 15.18981670165217
SVYATOBOR-1 (RS60S)
1 57187U 23091X   26176.51450604  .00011540  00000-0  44075-3 0  9994
2 57187  97.5092 240.3777 0010591  69.3875 290.8498 15.26746325165582
VIZARD-METEO (RS38S)
1 57189U 23091Z   26176.55072093  .00021755  00000-0  61601-3 0  9995
2 57189  97.5094 246.2041 0007665  52.0534 308.1402 15.36273552165973
UTMN-2 (RS27S)
1 57203U 23091AP  26176.48584410  .00016321  00000-0  52575-3 0  9998
2 57203  97.5089 243.8222 0008735  58.8741 301.3357 15.32239281165815
POLYTECH UNIVERSE-3 (RS46S)
1 57191U 23091AB  26176.50755977  .00006358  00000-0  30432-3 0  9992
2 57191  97.5049 234.2409 0017080 100.5030 259.8129 15.19186571165213
