OBJECT_NAME,OBJECT_ID,EPOCH,MEAN_MOTION,ECCENTRICITY,INCLINATION,RA_OF_ASC_NODE,ARG_OF_PERICENTER,MEAN_ANOMALY,EPHEMERIS_TYPE,CLASSIFICATION_TYPE,NORAD_CAT_ID,ELEMENT_SET_NO,REV_AT_EPOCH,BSTAR,MEAN_MOTION_DOT,MEAN_MOTION_DDOT
CUBEBUG-2 (LO-74),2013-066AA,2026-06-25T10:28:12.500256,14.93825366,.00576104,97.8903,125.4492,1.8777,358.2648,0,U,39440,999,67822,.40195716E-3,.4345E-4,0
FUNCUBE-1 (AO-73),2013-066AE,2026-06-25T11:24:06.905088,15.09577582,.00365156,97.8270,148.0938,172.7901,187.3861,0,U,39444,999,68091,.51483514E-3,.8333E-4,0
UWE-3,2013-066AG,2026-06-24T10:25:21.919008,14.97078120,.00468419,97.8706,131.5569,296.6681,62.9747,0,U,39446,999,67866,.34049594E-3,.3951E-4,0
UNISAT-6,2014-033C,2026-06-25T09:40:21.271872,14.88282993,.00458053,97.7882,328.9707,42.8866,317.5908,0,U,40012,999,64738,.27187332E-3,.2505E-4,0
DUCHIFAT-1,2014-033M,2026-06-24T10:30:03.579552,15.65947368,.00018424,98.0461,235.6243,104.9324,255.2139,0,U,40021,999,65688,.10238096E-2,.105271E-2,0
QB50P1,2014-033R,2026-06-25T12:28:37.225056,15.18376533,.00086721,98.0964,188.2502,185.6862,174.4273,0,U,40025,999,65429,.51209345E-3,.10465E-3,0
LILACSAT-2,2015-049K,2026-06-25T14:12:20.268000,15.51706032,.00063128,97.4641,213.7535,207.1919,152.9004,0,U,40908,999,59705,.35800631E-3,.21256E-3,0
FOX-1A (AO-85),2015-058D,2026-06-25T12:51:14.205312,14.91002473,.01309415,64.7749,253.0389,53.3453,307.9612,0,U,40967,999,11481,.21214642E-3,.2298E-4,0
CAS-2T & KS-1Q,2016-066G,2026-06-25T04:55:55.801344,14.44718564,.03428891,98.3820,251.8502,105.2370,258.6999,0,U,41847,999,50595,.22533001E-3,.1561E-4,0
RADFXSAT (FOX-1B),2017-073E,2026-06-25T13:00:51.604416,15.12825530,.01486497,97.4699,43.5862,300.1381,58.5188,0,U,43017,999,46665,.34637761E-3,.7913E-4,0
DIWATA-2B,2018-084H,2026-06-25T13:44:19.332672,15.00485529,.00129834,98.1206,13.1462,143.8417,216.3685,0,U,43678,999,41747,.16839538E-3,.2058E-4,0
ES'HAIL 2,2018-090A,2026-06-25T07:35:17.054304,1.00273905,.0002175,0.0181,336.2990,153.2886,283.4885,0,U,43700,999,2775,0,.154E-5,0
FOX-1CLIFF (AO-95),2018-099N,2026-06-25T09:37:40.534176,15.26870424,.00072025,97.4384,236.6174,325.7234,34.3539,0,U,43770,999,41447,.52086937E-3,.13696E-3,0
ITASAT,2018-099AE,2026-06-25T09:17:36.056832,15.19148887,.00112751,97.4030,227.7353,330.0612,29.9977,0,U,43786,999,41415,.35511033E-3,.7409E-4,0
JY1SAT (JO-97),2018-099AX,2026-06-25T02:53:27.558240,15.33882017,.00049226,97.4134,238.9829,226.5613,133.5221,0,U,43803,999,41484,.63897777E-3,.20902E-3,0
UWE-4,2018-111E,2026-06-24T08:00:08.237952,15.46518147,.00044221,97.5840,104.0552,306.3927,53.6913,0,U,43880,999,41188,.61651018E-3,.30606E-3,0
TIANYAN 01,2019-093C,2026-06-25T14:14:31.441344,14.86529547,.0014983,97.7532,248.6208,61.9308,298.3421,0,U,44881,999,35266,.31326618E-4,.224E-5,0
RS-44 & BREEZE-KM R/B,2019-096E,2026-06-25T12:38:48.219936,12.79748967,.02184431,82.5224,334.1623,124.7433,237.4451,0,U,44909,999,30341,.43498583E-4,.24E-6,0
SALSAT,2020-068K,2026-06-25T12:25:27.555456,15.29908924,.00078024,97.8852,180.0899,272.5783,87.4563,0,U,46495,999,31663,.3089847E-3,.8873E-4,0
XW-3 (CAS-9),2021-131B,2026-06-25T14:14:08.337984,14.41364360,.00053511,98.4980,268.9373,77.2667,282.9120,0,U,50466,999,23632,.15095347E-3,.445E-5,0
GREENCUBE (IO-117),2022-080E,2026-06-23T17:18:16.788960,6.42583215,.00089266,70.1445,295.9726,288.1418,71.8270,0,U,53109,999,9248,0,-.3E-7,0
UMKA 1 (RS40S),2023-091G,2026-06-25T12:22:27.426144,15.20907085,.00143069,97.5051,235.1806,91.9943,268.2931,0,U,57172,999,16527,.37188391E-3,.8178E-4,0
CUBESX-HSE 3 (RS42S),2023-091N,2026-06-25T12:54:52.828416,15.31410874,.00116164,97.5094,242.2312,68.7576,291.4904,0,U,57178,999,16570,.57733627E-3,.17491E-3,0
MONITOR-3 (RS58S),2023-091Q,2026-06-25T12:22:30.339552,15.27997849,.00128192,97.5086,240.0230,75.1032,285.1626,0,U,57180,999,16556,.50512017E-3,.13765E-3,0
MONITOR-4 (RS57S),2023-091S,2026-06-25T13:25:58.561248,15.28084118,.0012826,97.5079,240.0391,75.1936,285.0724,0,U,57182,999,16557,.47925628E-3,.13089E-3,0
MONITOR-2 (RS39S),2023-091U,2026-06-25T11:33:18.450720,15.18981670,.00127696,97.5073,234.7107,86.0983,274.1711,0,U,57184,999,16521,.27276434E-3,.5648E-4,0
SVYATOBOR 1 (RS60S),2023-091X,2026-06-25T12:20:53.321856,15.26746325,.00105905,97.5092,240.3777,69.3875,290.8498,0,U,57187,999,16558,.44074618E-3,.1154E-3,0
VIZARD-METEO (RS38S),2023-091Z,2026-06-25T13:13:02.288352,15.36273552,.00076652,97.5094,246.2041,52.0534,308.1402,0,U,57189,999,16597,.61600739E-3,.21755E-3,0
POLYTECH-UNIVERSE 3 (RS46S),2023-091AB,2026-06-25T12:10:53.164128,15.19186571,.00170799,97.5049,234.2409,100.5030,259.8129,0,U,57191,999,16521,.30431671E-3,.6358E-4,0
UTMN 2 (RS27S),2023-091AP,2026-06-25T11:39:36.930240,15.32239281,.00087349,97.5089,243.8222,58.8741,301.3357,0,U,57203,999,16581,.52575255E-3,.16321E-3,0
